[
    {
        "Altitude(m)": 607895.8529715417,
        "Argument of Periapsis(deg)": 0.0,
        "Eccentricity": 0.0,
        "Inclination(deg)": 60.0,
        "Latitude(deg)": 40.99843598390541,
        "Longitude(deg)": 65.08860180636097,
        "Mean Anomaly(deg)": 130.9091,
        "RAAN(deg)": 15.0,
        "Satellite Name": "Test1 74",
        "Satellite Number": 74,
        "Semi-Major Axis(m)": 6980739.136638005,
        "Time(s)": 0
    },
    {
        "Altitude(m)": 607795.165888143,
        "Argument of Periapsis(deg)": 0.00010418945913296404,
        "Eccentricity": 0.0,
        "Inclination(deg)": 60.0,
        "Latitude(deg)": 40.530760688291636,
        "Longitude(deg)": 65.58519706895282,
        "Mean Anomaly(deg)": 131.5292061454618,
        "RAAN(deg)": 14.999579950860259,
        "Satellite Name": "Test1 74",
        "Satellite Number": 74,
        "Semi-Major Axis(m)": 6980739.136638005,
        "Time(s)": 10
    }
]